[{"OBJECT_NAME":"STARLINK-34401","OBJECT_ID":"2025-147C","EPOCH":"2026-03-09T17:33:48.700224","MEAN_MOTION":15.3019119,"ECCENTRICITY":0.00010615,"INCLINATION":53.1596,"RA_OF_ASC_NODE":242.8826,"ARG_OF_PERICENTER":53.5782,"MEAN_ANOMALY":306.5317,"EPHEMERIS_TYPE":0,"CLASSIFICATION_TYPE":"U","NORAD_CAT_ID":64757,"ELEMENT_SET_NO":999,"REV_AT_EPOCH":3868,"BSTAR":0.00064941035,"MEAN_MOTION_DOT":0.00018918,"MEAN_MOTION_DDOT":0},{"OBJECT_NAME":"KUIPER-00213","OBJECT_ID":"2026-030P","EPOCH":"2026-03-09T22:00:01.999584","MEAN_MOTION":15.32626943,"ECCENTRICITY":0.00152813,"INCLINATION":51.8816,"RA_OF_ASC_NODE":218.5142,"ARG_OF_PERICENTER":64.2462,"MEAN_ANOMALY":206.8369,"EPHEMERIS_TYPE":0,"CLASSIFICATION_TYPE":"U","NORAD_CAT_ID":67777,"ELEMENT_SET_NO":999,"REV_AT_EPOCH":502,"BSTAR":0.0016072376,"MEAN_MOTION_DOT":0.00051551,"MEAN_MOTION_DDOT":0}]
